NORAD_CAT_ID,OBJECT_NAME,OBJECT_TYPE,EPOCH,MEAN_MOTION,ECCENTRICITY,INCLINATION,RA_OF_ASC_NODE,ARG_OF_PERICENTER,MEAN_ANOMALY,BSTAR,MEAN_MOTION_DOT,MEAN_MOTION_DDOT,TLE_LINE0,TLE_LINE1,TLE_LINE2,SEMIMAJOR_AXIS,PERIOD,APOGEE,PERIGEE,DECAYED
51779.0,STARLINK-3611,PAYLOAD,2022-12-26 18:45:35,15.08845132,0.0002994,53.2149,186.5664,38.518,321.6025,7.5544000000000034e-06,-1.68e-06,0.0,0 STARLINK-3611,1 51779U 22017M   22360.78165546 -.00000168  00000-0  75544-5 0  9992,2 51779  53.2149 186.5664 0002994  38.5180 321.6025 15.08845132 47591,6917.865,95.437,541.8009999999998,537.658,0.0
51779.0,STARLINK-3611,PAYLOAD,2022-12-26 20:20:58,15.08841571,0.0003005,53.2149,186.269,38.53,321.5906,7.2775e-05,8.7e-06,0.0,0 STARLINK-3611,1 51779U 22017M   22360.84789561  .00000870  00000-0  72775-4 0  9999,2 51779  53.2149 186.2690 0003005  38.5300 321.5906 15.08841571 46112,6917.876,95.437,541.819,537.6619999999998,0.0
51779.0,STARLINK-3611,PAYLOAD,2022-12-27 20:11:44,15.08847613,0.0003058999999999,53.2148,181.8081,40.8103,319.3118,0.00013113,1.799e-05,0.0,0 STARLINK-3611,1 51779U 22017M   22361.84148860  .00001799  00000-0  13113-3 0  9992,2 51779  53.2148 181.8081 0003059  40.8103 319.3118 15.08847613 47756,6917.857,95.437,541.8380000000002,537.606,0.0
51779.0,STARLINK-3611,PAYLOAD,2022-12-28 12:05:36,15.08844417,0.0003086999999999,53.2146,178.834,42.4796,317.6435,5.304e-05,5.56e-06,0.0,0 STARLINK-3611,1 51779U 22017M   22362.50389039  .00000556  00000-0  53040-4 0  9995,2 51779  53.2146 178.8340 0003087  42.4796 317.6435 15.08844417 46363,6917.8669999999975,95.437,541.867,537.596,0.0
51779.0,STARLINK-3611,PAYLOAD,2022-12-29 19:53:19,15.08836776,0.0003064999999999,53.2152,172.8868,42.8236,317.2994,-7.334e-05,-1.456e-05,0.0,0 STARLINK-3611,1 51779U 22017M   22363.82869763 -.00001456  00000-0 -73340-4 0  9995,2 51779  53.2152 172.8868 0003065  42.8236 317.2994 15.08836776 48051,6917.89,95.438,541.876,537.635,0.0
51779.0,STARLINK-3611,PAYLOAD,2022-12-30 11:47:10,15.08833507,0.0003077,53.2153,169.9131,42.7599,317.3632,2.0456e-06,-2.56e-06,0.0,0 STARLINK-3611,1 51779U 22017M   22364.49109905 -.00000256  00000-0  20456-5 0  9991,2 51779  53.2153 169.9131 0003077  42.7599 317.3632 15.08833507 46660,6917.9,95.438,541.894,537.637,0.0
51779.0,STARLINK-3611,PAYLOAD,2022-12-31 03:41:01,15.08842165,0.00031,53.2154,166.9397,43.4627,316.6609,9.1153e-05,1.162e-05,0.0,0 STARLINK-3611,1 51779U 22017M   22365.15349237  .00001162  00000-0  91153-4 0  9996,2 51779  53.2154 166.9397 0003100  43.4627 316.6609 15.08842165 48252,6917.874,95.437,541.883,537.594,0.0
51779.0,STARLINK-3611,PAYLOAD,2022-12-31 17:59:29,15.0884259,0.0003151,53.2156,164.2627,43.3505,316.7735,0.00017225,2.454e-05,0.0,0 STARLINK-3611,1 51779U 22017M   22365.74964981  .00002454  00000-0  17225-3 0  9992,2 51779  53.2156 164.2627 0003151  43.3505 316.7735 15.08842590 46858,6917.871999999999,95.437,541.9169999999998,537.558,0.0
51779.0,STARLINK-3611,PAYLOAD,2023-01-01 03:31:49,15.08838012,0.0003106999999999,53.2154,162.4789,43.0985,317.025,0.00011592,1.557e-05,0.0,0 STARLINK-3611,1 51779U 22017M   23001.14709515  .00001557  00000-0  11592-3 0  9998,2 51779  53.2154 162.4789 0003107  43.0985 317.0250 15.08838012 48408,6917.886,95.438,541.901,537.602,0.0
51779.0,STARLINK-3611,PAYLOAD,2023-01-01 09:53:21,15.08840617,0.0003523,53.2152,161.2887,48.5614,311.5681,6.712600000000001e-05,7.8e-06,0.0,0 STARLINK-3611,1 51779U 22017M   23001.41205749  .00000780  00000-0  67126-4 0  9990,2 51779  53.2152 161.2887 0003523  48.5614 311.5681 15.08840617 46952,6917.879,95.438,542.181,537.306,0.0
51779.0,STARLINK-3611,PAYLOAD,2023-01-01 17:50:18,15.08831781,0.0003156,53.2157,159.8033,45.6564,314.4686,-1.4805e-05,-5.24e-06,0.0,0 STARLINK-3611,1 51779U 22017M   23001.74326521 -.00000524  00000-0 -14805-4 0  9992,2 51779  53.2157 159.8033 0003156  45.6564 314.4686 15.08831781 47003,6917.906,95.438,541.9540000000002,537.587,0.0
51779.0,STARLINK-3611,PAYLOAD,2023-01-02 03:22:36,15.08839805,0.0003161,53.216,158.018,44.9559,315.1688,1.7570999999999998e-05,-9e-08,0.0,0 STARLINK-3611,1 51779U 22017M   23002.14069983 -.00000009  00000-0  17571-4 0  9993,2 51779  53.2160 158.0180 0003161  44.9559 315.1688 15.08839805 48559,6917.880999999999,95.438,541.933,537.559,0.0
51779.0,STARLINK-3611,PAYLOAD,2023-01-02 17:41:03,15.08850373,0.0003023,53.2159,155.342,48.0027,312.1222,3.9939e-05,3.47e-06,0.0,0 STARLINK-3611,1 51779U 22017M   23002.73685074  .00000347  00000-0  39939-4 0  9999,2 51779  53.2159 155.3420 0003023  48.0027 312.1222 15.08850373 48640,6917.849,95.437,541.805,537.622,0.0
51779.0,STARLINK-3611,PAYLOAD,2023-01-03 03:13:23,15.08841836,0.0003273999999999,53.2165,153.5573,43.3456,316.7793,0.00010655,1.408e-05,0.0,0 STARLINK-3611,1 51779U 22017M   23003.13429446  .00001408  00000-0  10655-3 0  9995,2 51779  53.2165 153.5573 0003274  43.3456 316.7793 15.08841836 48702,6917.875,95.437,542.005,537.475,0.0
51779.0,STARLINK-3611,PAYLOAD,2023-01-03 19:07:14,15.08840109,0.0003167,53.2166,150.5833,45.9212,314.204,0.00012034,1.627e-05,0.0,0 STARLINK-3611,1 51779U 22017M   23003.79669621  .00001627  00000-0  12034-3 0  9994,2 51779  53.2166 150.5833 0003167  45.9212 314.2040 15.08840109 47314,6917.88,95.438,541.936,537.554,0.0
51779.0,STARLINK-3611,PAYLOAD,2023-01-04 15:47:14,15.08846923,0.0003286,53.2166,146.7177,48.3005,311.8268,6.2169e-05,7.01e-06,0.0,0 STARLINK-3611,1 51779U 22017M   23004.65781229  .00000701  00000-0  62169-4 0  9996,2 51779  53.2166 146.7177 0003286  48.3005 311.8268 15.08846923 48935,6917.859,95.437,541.997,537.451,0.0
51779.0,STARLINK-3611,PAYLOAD,2023-01-05 09:16:28,15.08867226,0.0003109,53.2146,143.4457,45.8572,314.2676,-2.2342e-05,-6.45e-06,0.0,0 STARLINK-3611,1 51779U 22017M   23005.38643548 -.00000645  00000-0 -22342-4 0  9996,2 51779  53.2146 143.4457 0003109  45.8572 314.2676 15.08867226 49045,6917.797,95.436,541.813,537.511,0.0
51779.0,STARLINK-3611,PAYLOAD,2023-01-05 15:38:00,15.08856336,0.0003118,53.2148,142.2561,48.6231,311.5029,0.00016989,2.418e-05,0.0,0 STARLINK-3611,1 51779U 22017M   23005.65139715  .00002418  00000-0  16989-3 0  9999,2 51779  53.2148 142.2561 0003118  48.6231 311.5029 15.08856336 47593,6917.83,95.437,541.852,537.538,0.0
51779.0,STARLINK-3611,PAYLOAD,2023-01-06 09:07:16,15.08837619,0.0003158,53.2151,138.9874,42.2729,317.8506,-0.00012834,-2.331e-05,0.0,0 STARLINK-3611,1 51779U 22017M   23006.38005189 -.00002331  00000-0 -12834-3 0  9998,2 51779  53.2151 138.9874 0003158  42.2729 317.8506 15.08837619 49192,6917.888000000001,95.438,541.937,537.568,0.0
51779.0,STARLINK-3611,PAYLOAD,2023-01-07 18:30:23,15.08835078,0.0003007,53.2151,132.7425,34.898,325.2209,3.3743e-06,-2.35e-06,0.0,0 STARLINK-3611,1 51779U 22017M   23007.77109988 -.00000235  00000-0  33743-5 0  9998,2 51779  53.2151 132.7425 0003007  34.8980 325.2209 15.08835078 49409,6917.895,95.438,541.841,537.68,0.0
51779.0,STARLINK-3611,PAYLOAD,2023-01-08 08:48:51,15.08832704,0.0002993,53.2163,130.0669,34.5678,325.5508,0.00031411,4.713e-05,0.0,0 STARLINK-3611,1 51779U 22017M   23008.36726422  .00004713  00000-0  31411-3 0  9994,2 51779  53.2163 130.0669 0002993  34.5678 325.5508 15.08832704 48000,6917.903,95.438,541.8380000000002,537.697,0.0
51779.0,STARLINK-3611,PAYLOAD,2023-01-08 16:45:47,15.08835202,0.0002878999999999,53.2155,128.5805,36.076,324.0426,0.00027901,4.154e-05,0.0,0 STARLINK-3611,1 51779U 22017M   23008.69846544  .00004154  00000-0  27901-3 0  9996,2 51779  53.2155 128.5805 0002879  36.0760 324.0426 15.08835202 48051,6917.895,95.438,541.752,537.768,0.0
51779.0,STARLINK-3611,PAYLOAD,2023-01-09 07:04:15,15.08843483,0.0002796,53.2153,125.9037,29.9574,330.1578,0.00017561,2.508e-05,0.0,0 STARLINK-3611,1 51779U 22017M   23009.29462018  .00002508  00000-0  17561-3 0  9995,2 51779  53.2153 125.9037 0002796  29.9574 330.1578 15.08843483 49630,6917.87,95.437,541.669,537.8009999999998,0.0
51779.0,STARLINK-3611,PAYLOAD,2023-01-09 16:36:33,15.08844553,0.0002813,53.2152,124.1194,30.3299,329.7855,0.00016353,2.315e-05,0.0,0 STARLINK-3611,1 51779U 22017M   23009.69205962  .00002315  00000-0  16353-3 0  9996,2 51779  53.2152 124.1194 0002813  30.3299 329.7855 15.08844553 48207,6917.866,95.437,541.677,537.785,0.0
51779.0,STARLINK-3611,PAYLOAD,2023-01-10 08:30:25,15.0883785,0.0002671,53.2142,121.1454,28.6788,331.435,4.718e-05,4.62e-06,0.0,0 STARLINK-3611,1 51779U 22017M   23010.35446081  .00000462  00000-0  47180-4 0  9994,2 51779  53.2142 121.1454 0002671  28.6788 331.4350 15.08837850 49794,6917.887,95.438,541.6,537.904,0.0
51779.0,STARLINK-3611,PAYLOAD,2023-01-10 13:16:34,15.08843035,0.0002763,53.2148,120.2531,29.3256,330.789,8.2666e-05,1.028e-05,0.0,0 STARLINK-3611,1 51779U 22017M   23010.55317900  .00001028  00000-0  82666-4 0  9990,2 51779  53.2148 120.2531 0002763  29.3256 330.7890 15.08843035 48338,6917.871,95.437,541.648,537.825,0.0
51779.0,STARLINK-3611,PAYLOAD,2023-01-11 13:07:22,15.0883387,0.0002906,53.2142,115.7939,33.5667,326.5508,3.1333e-05,2.1e-06,0.0,0 STARLINK-3611,1 51779U 22017M   23011.54678957  .00000210  00000-0  31333-4 0  9999,2 51779  53.2142 115.7939 0002906  33.5667 326.5508 15.08833870 49971,6917.899,95.438,541.774,537.754,0.0
51779.0,STARLINK-3611,PAYLOAD,2023-01-12 16:08:56,15.08844795,0.0002421,53.2151,110.7373,32.4742,327.6398,0.00028333,4.224e-05,0.0,0 STARLINK-3611,1 51779U 22017M   23012.67287237  .00004224  00000-0  28333-3 0  9995,2 51779  53.2151 110.7373 0002421  32.4742 327.6398 15.08844795 50140,6917.866,95.437,541.406,538.056,0.0
51779.0,STARLINK-3611,PAYLOAD,2023-01-13 00:05:52,15.08830739,0.0001978,53.2151,109.2504,33.8905,326.2213,0.0001456,2.029e-05,0.0,0 STARLINK-3611,1 51779U 22017M   23013.00407823  .00002029  00000-0  14560-3 0  9996,2 51779  53.2151 109.2504 0001978  33.8905 326.2213 15.08830739 50190,6917.9090000000015,95.438,541.1419999999998,538.405,0.0
